STARLINK-32118          
1 60280C 24132C   26092.34493056  .00099188  00000+0  33377-2 0   924
2 60280  53.1575 302.3968 0001580 129.6268 255.2829 15.30192413    16
STARLINK-32038          
1 60281C 24132D   26092.33034722 -.00089521  00000+0 -30160-2 0   924
2 60281  53.1573 302.4886 0001113  92.2303 200.7100 15.30248658    12
STARLINK-32113          
1 60282C 24132E   26092.27965278 -.00034648  00000+0 -11679-2 0   921
2 60282  53.1573 302.7360 0001112  91.1273 276.5930 15.30206307    13
STARLINK-32037          
1 60283C 24132F   26092.36715278  .00003032  00000+0  10221-3 0   929
2 60283  53.1589 302.5448 0001074  85.0768 294.4148 15.30185993    11
STARLINK-32123          
1 60284C 24132G   26092.34701389 -.00028221  00000+0 -95135-3 0   922
2 60284  53.1574 289.9111 0001021  93.8071 154.4751 15.30199642    18
STARLINK-32122          
1 60285C 24132H   26092.31993056 -.00047872  00000+0 -16134-2 0   928
2 60285  53.1585 302.6988 0001236  93.2768  60.8341 15.30216104    19
STARLINK-31656          
1 60286C 24132J   26092.29145833 -.00032791  00000+0 -11053-2 0   927
2 60286  53.1579 302.5829 0001028  88.2439  36.8909 15.30203833    12
STARLINK-32114          
1 60287C 24132K   26092.39354167  .00001826  00000+0  61514-4 0   923
2 60287  53.1589 302.6379 0001104 101.3270 313.1257 15.30205139    18
STARLINK-31997          
1 60288C 24132L   26092.27895833 -.00010838  00000+0 -36516-3 0   929
2 60288  53.1582 302.5291 0001215  85.5591  22.9459 15.30207776    14
STARLINK-32000          
1 60289C 24132M   26092.30604167 -.00027108  00000+0 -91384-3 0   924
2 60289  53.1587 302.8659 0001080  82.6299 302.5806 15.30198576    14
STARLINK-32141          
1 60290C 24132N   26092.36993056  .00008417  00000+0  28372-3 0   927
2 60290  53.1575 302.3964 0001140  91.3708  13.2401 15.30181792    15
STARLINK-32142          
1 60291C 24132P   26092.27687500 -.00059753  00000+0 -20139-2 0   925
2 60291  53.1582 302.5965 0001153  90.0385 337.9890 15.30221715    16
STARLINK-32149          
1 60292C 24132Q   26092.34493056 -.00028928  00000+0 -97503-3 0   925
2 60292  53.1587 302.7193 0001217  94.3862 127.7270 15.30204533    11
STARLINK-32159          
1 60293C 24132R   26092.29076389 -.00036314  00000+0 -12251-2 0   920
2 60293  53.1582 302.5079 0001307  93.3504  62.9593 15.30179309    10
STARLINK-32150          
1 60294C 24132S   26092.38451389 -.00005143  00000+0 -17335-3 0   923
2 60294  53.1587 302.5693 0001166  96.9984 325.8426 15.30192621    10
STARLINK-32126          
1 60295C 24132T   26092.34076389 -.00074078  00000+0 -24947-2 0   922
2 60295  53.1588 302.9058 0001213  91.7553  20.0715 15.30254948    15
STARLINK-32143          
1 60296C 24132U   26092.38868056 -.00013657  00000+0 -46035-3 0   926
2 60296  53.1586 302.5842 0000605  87.2701 341.0907 15.30195426    14
STARLINK-32034          
1 60297C 24132V   26092.27826389 -.00052258  00000+0 -17612-2 0   926
2 60297  53.1589 302.9471 0001029  92.7149 162.6582 15.30219884    19
STARLINK-32124          
1 60298C 24132W   26092.25534722  .00118270  00000+0  39863-2 0   929
2 60298  53.1587 303.1923 0001182  82.0566 337.2000 15.30132194    11
STARLINK-32151          
1 60299C 24132X   26092.38590278  .00049970  00000+0  16845-2 0   927
2 60299  53.1581 273.9156 0000925  84.3244 321.1676 15.30161322    16
STARLINK-32134          
1 60300C 24132Y   26092.28104167 -.00013600  00000+0 -45842-3 0   920
2 60300  53.1580 302.8311 0001014  77.0615 245.8742 15.30195455    14
STARLINK-11147 [DTC]    
1 60301C 24133A   26092.37756944  .00096335  00000+0  79317-3 0   926
2 60301  53.1564  29.6696 0001227  70.1205 216.5293 15.69672681    11
STARLINK-11128 [DTC]    
1 60302C 24133B   26092.33243056  .00129520  00000+0  10663-2 0   929
2 60302  53.1568  29.8352 0001152  90.1873 328.9863 15.69657839    16
STARLINK-11227 [DTC]    
1 60303C 24133C   26092.39840278  .00069841  00000+0  57475-3 0   927
2 60303  53.1572  29.4527 0001060  86.7229  13.1934 15.69697790    18
STARLINK-11224 [DTC]    
1 60304C 24133D   26092.36993056  .00105480  00000+0  86810-3 0   923
2 60304  53.1572  29.5365 0001388  79.4309 247.2454 15.69676575    16
STARLINK-11115 [DTC]    
1 60305C 24133E   26092.38729167  .00077931  00000+0  64104-3 0   927
2 60305  53.1572  29.3934 0001376  77.7678  14.7845 15.69703962    16
STARLINK-11109 [DTC]    
1 60306C 24133F   26092.39631944  .00059285  00000+0  48870-3 0   928
2 60306  53.1573  29.2916 0001309  63.3280 108.0680 15.69662471    16
STARLINK-11223 [DTC]    
1 60307C 24133G   26092.29145833  .00109400  00000+0  90100-3 0   923
2 60307  53.1571  29.6943 0001244  68.9196 285.0075 15.69659817    18
STARLINK-11192 [DTC]    
1 60308C 24133H   26092.37131944  .00097788  00000+0  80483-3 0   929
2 60308  53.1572  29.3574 0001420  68.4099 349.3308 15.69680469    10
STARLINK-11213 [DTC]    
1 60309C 24133J   26092.36020833  .00110130  00000+0  90678-3 0   927
2 60309  53.1571  29.2974 0001277  89.3822 321.0045 15.69664364    10
STARLINK-11200 [DTC]    
1 60310C 24133K   26092.27340278  .00068525  00000+0  56448-3 0   924
2 60310  53.1576  29.6691 0001126  85.3880 221.9225 15.69674593    13
STARLINK-11206 [DTC]    
1 60312C 24133M   26092.27340278  .00020891  00000+0  17210-3 0   924
2 60312  53.1571  30.2894 0001153  89.4235 272.7800 15.69696953    19
STARLINK-11205 [DTC]    
1 60313C 24133N   26092.31020833  .00121680  00000+0  10022-2 0   923
2 60313  53.1564  30.0502 0000993  72.6629 165.3956 15.69651901    11
STARLINK-32191          
1 60314C 24133P   26092.34215278  .00034950  00000+0  11782-2 0   923
2 60314  53.1584 187.0471 0001300  91.4222 271.1036 15.30166538    13
STARLINK-32194          
1 60315C 24133Q   26092.39840278  .00005500  00000+0  18531-3 0   922
2 60315  53.1574 186.9510 0001280  99.1751 131.9289 15.30198506    17
STARLINK-32192          
1 60316C 24133R   26092.36229167  .00019857  00000+0  66905-3 0   926
2 60316  53.1602 186.7169 0001276  91.8990 143.7443 15.30190653    15
STARLINK-32189          
1 60317C 24133S   26092.38937500 -.00007866  00000+0 -26505-3 0   927
2 60317  53.1576 186.9687 0001243  98.9960  93.9856 15.30204061    15
STARLINK-32190          
1 60318C 24133T   26092.38312500 -.00029946  00000+0 -10076-2 0   923
2 60318  53.1583 186.8911 0001254  98.5316 112.2797 15.30260859    12
STARLINK-32182          
1 60319C 24133U   26092.33034722  .00032862  00000+0  11073-2 0   923
2 60319  53.1574 187.2557 0001249  94.8511 126.9690 15.30181338    12
STARLINK-32199          
1 60320C 24133V   26092.38173611  .00009667  00000+0  32575-3 0   929
2 60320  53.1580 186.9331 0001484  92.8153  92.9587 15.30193164    15
STARLINK-32198          
1 60321C 24133W   26092.37965278  .00149710  00000+0  50466-2 0   929
2 60321  53.1574 187.0471 0000617 275.2868 206.5906 15.30112185    15
STARLINK-31745          
1 60329C 24136A   26092.33173611 -.00047885  00000+0 -16138-2 0   928
2 60329  53.1586 326.1743 0001274  90.7902 130.9283 15.30217569    13
STARLINK-32153          
1 60330C 24136B   26092.38798611 -.00028487  00000+0 -96008-3 0   920
2 60330  53.1584 325.9011 0001165  76.6723 100.9067 15.30207540    16
STARLINK-32203          
1 60331C 24136C   26092.35326389 -.00029682  00000+0 -10005-2 0   927
2 60331  53.1574 315.7288 0001218  90.9303  92.5427 15.30203993    15
STARLINK-32171          
1 60332C 24136D   26092.30604167 -.00037946  00000+0 -12787-2 0   927
2 60332  53.1604 325.7496 0001178  90.1885 269.0976 15.30216868    19
STARLINK-32133          
1 60333C 24136E   26092.36715278 -.00051499  00000+0 -17356-2 0   926
2 60333  53.1579 325.9282 0001219  99.3352 358.3115 15.30219285    15
STARLINK-32132          
1 60334C 24136F   26092.28312500 -.00039800  00000+0 -13412-2 0   920
2 60334  53.1580 326.2475 0001145  96.6078 292.8018 15.30216924    10
STARLINK-32168          
1 60335C 24136G   26092.30465278 -.00034474  00000+0 -11619-2 0   924
2 60335  53.1580 326.1124 0001246  83.2993  82.2124 15.30208105    12
STARLINK-32079          
1 60336C 24136H   26092.29215278 -.00027883  00000+0 -93974-3 0   927
2 60336  53.1580 326.1359 0001184  86.7373  27.3272 15.30206481    13
STARLINK-32078          
1 60338C 24136K   26092.32548611 -.00046400  00000+0 -15639-2 0   920
2 60338  53.1585 325.9336 0001047  82.5160 238.5400 15.30214200    15
STARLINK-32175          
1 60339C 24136L   26092.38381944 -.00117360  00000+0 -39500-2 0   928
2 60339  53.1587 325.6393 0001319  84.4551 209.7764 15.30293601    10
STARLINK-32176          
1 60340C 24136M   26092.28381944 -.00003338  00000+0 -11241-3 0   921
2 60340  53.1586 326.0694 0000967  98.3987  21.9683 15.30219360    19
STARLINK-32185          
1 60341C 24136N   26092.31784722 -.00031556  00000+0 -10635-2 0   925
2 60341  53.1589 325.8297 0001180  97.5703 251.1835 15.30208813    11
STARLINK-32221          
1 60342C 24136P   26092.36506944 -.00046306  00000+0 -15608-2 0   923
2 60342  53.1589 325.6451 0001201  85.2948 146.2829 15.30213210    15
STARLINK-32083          
1 60343C 24136Q   26092.31437500 -.00049149  00000+0 -16566-2 0   922
2 60343  53.1587 325.8579 0001082  88.8349 217.5427 15.30213833    15
STARLINK-32077          
1 60344C 24136R   26092.30812500 -.00054500  00000+0 -18368-2 0   928
2 60344  53.1594 325.8397 0001225  87.0271 225.5930 15.30219200    18
STARLINK-32075          
1 60345C 24136S   26092.33104167 -.00052107  00000+0 -17561-2 0   920
2 60345  53.1600 325.6863 0001354  88.0089  14.1891 15.30220417    14
STARLINK-32082          
1 60346C 24136T   26092.27618056 -.00026783  00000+0 -90262-3 0   922
2 60346  53.1597 325.9535 0001243  80.7860  73.2043 15.30207171    19
STARLINK-32084          
1 60347C 24136U   26092.39145833 -.00019377  00000+0 -65350-3 0   925
2 60347  53.1602 325.3823 0001099 101.6255 345.2605 15.30180475    14
